OBJECT_NAME,OBJECT_ID,EPOCH,MEAN_MOTION,ECCENTRICITY,INCLINATION,RA_OF_ASC_NODE,ARG_OF_PERICENTER,MEAN_ANOMALY,EPHEMERIS_TYPE,CLASSIFICATION_TYPE,NORAD_CAT_ID,ELEMENT_SET_NO,REV_AT_EPOCH,BSTAR,MEAN_MOTION_DOT,MEAN_MOTION_DDOT
STARLINK-32361,2024-207X,2026-06-17T01:08:54.423168,15.27615108,.00008021,43.0003,80.9422,129.7491,230.3431,0,U,61933,999,8991,.72243231E-3,.19692E-3,0
STARLINK-32500,2024-207Z,2026-06-17T16:31:16.451904,15.27585872,.00015736,43.0048,80.6275,263.7905,96.2767,0,U,61935,999,8997,.5221429E-3,.14136E-3,0
HAIYANG 4-01,2024-208A,2026-06-17T22:32:59.439840,14.73299941,.00020836,98.0028,176.6864,118.9892,241.1525,0,U,61936,999,8555,.62797079E-4,.356E-5,0
STARLINK-11407 [DTC],2024-209A,2026-06-17T14:29:39.710112,15.69722139,.0002292,53.1566,238.4964,30.2308,329.8842,0,U,61939,999,9243,.85234E-3,.104033E-2,0
STARLINK-11337 [DTC],2024-209B,2026-06-17T12:50:54.543264,15.69710136,.00013569,53.1566,238.7830,51.9327,308.1813,0,U,61940,999,9240,.10232192E-2,.125261E-2,0
STARLINK-11353 [DTC],2024-209C,2026-06-17T14:15:31.987872,15.69712473,.0002341,53.1562,238.4320,27.0855,333.0285,0,U,61941,999,9237,.9177E-3,.112121E-2,0
STARLINK-11320 [DTC],2024-209D,2026-06-17T11:05:14.638272,15.69696892,.00013939,53.1569,239.7598,50.6025,309.5116,0,U,61942,999,9234,.13669155E-2,.168321E-2,0
STARLINK-11425 [DTC],2024-209E,2026-06-17T12:29:51.826272,15.69699950,.00011665,53.1567,239.4135,88.6336,271.4816,0,U,61943,999,9235,.10693699E-2,.130973E-2,0
STARLINK-11422 [DTC],2024-209F,2026-06-17T13:54:28.867392,15.69712781,.0001189,53.1558,239.0695,92.7561,267.3593,0,U,61944,999,9236,.10496E-2,.128566E-2,0
STARLINK-11421 [DTC],2024-209G,2026-06-17T10:44:03.176736,15.69710255,.00011563,53.1561,239.6632,60.4418,299.6715,0,U,61945,999,9234,.11522156E-2,.141405E-2,0
STARLINK-11410 [DTC],2024-209H,2026-06-17T16:43:43.467168,15.69766135,.00019293,53.1565,238.3771,12.3531,347.7534,0,U,61946,999,9242,.11388218E-2,.14006E-2,0
STARLINK-11390 [DTC],2024-209J,2026-06-17T12:01:36.469056,15.69706695,.00010174,53.1564,239.2851,93.7922,266.3213,0,U,61947,999,9239,.10477858E-2,.128311E-2,0
STARLINK-11414 [DTC],2024-209K,2026-06-17T10:01:40.087776,15.69703932,.00014824,53.1560,239.4664,27.2364,332.8732,0,U,61948,999,9238,.11667561E-2,.143191E-2,0
STARLINK-11424 [DTC],2024-209L,2026-06-17T11:40:24.228192,15.69780489,.000177,53.1560,239.1852,37.0686,323.0454,0,U,61949,999,9235,.14755877E-2,.182702E-2,0
STARLINK-11423 [DTC],2024-209M,2026-06-17T10:22:51.576096,15.69704998,.00008992,53.1560,239.5679,17.8692,342.2357,0,U,61950,999,9238,.98420181E-3,.120364E-2,0
STARLINK-11395 [DTC],2024-209N,2026-06-17T10:15:47.756448,15.69703784,.00016991,53.1564,239.5300,31.2143,328.8975,0,U,61951,999,9234,.10236936E-2,.125288E-2,0
STARLINK-32572,2024-209P,2026-06-17T20:13:30.293472,15.30207953,.00021098,53.1596,37.0010,138.2203,221.8960,0,U,61952,999,9023,.54326874E-3,.15769E-3,0
STARLINK-32585,2024-209Q,2026-06-17T21:11:15.601344,15.49326793,.0001146,53.1593,32.2708,79.1485,280.9653,0,U,61953,999,9030,.83438549E-3,.46261E-3,0
STARLINK-32574,2024-209R,2026-06-17T21:07:50.733984,15.49319025,.00013189,53.1595,32.2542,44.5339,315.5776,0,U,61954,999,9032,.80088178E-3,.44363E-3,0
STARLINK-32583,2024-209S,2026-06-17T17:06:24.489216,15.49352824,.00011903,53.1589,32.6279,70.6463,289.4675,0,U,61955,999,9029,.92829513E-3,.51601E-3,0
STARLINK-32273,2024-209T,2026-06-17T20:21:06.180480,15.30214044,.00011078,53.1590,37.0296,120.6605,239.4505,0,U,61956,999,9023,.92689483E-3,.27205E-3,0
STARLINK-32359,2024-209U,2026-06-17T21:28:36.990048,15.49298130,.00010429,53.1591,31.6304,78.2723,281.8403,0,U,61957,999,9033,.19289644E-2,.10829E-2,0
STARLINK-32566,2024-209V,2026-06-17T22:24:41.943456,15.49312246,.00010947,53.1582,31.1668,84.6990,275.4144,0,U,61958,999,9034,.74603367E-3,.41267E-3,0
STARLINK-32499,2024-210A,2026-06-17T04:50:03.712704,15.27606708,.00028976,43.0048,337.4372,275.1492,84.9029,0,U,61959,999,9014,.62706021E-3,.17048E-3,0
STARLINK-32372,2024-210B,2026-06-16T18:02:04.387488,15.27591785,.00018746,43.0018,340.0779,264.4131,95.6507,0,U,61960,999,8993,.53974591E-3,.14625E-3,0
STARLINK-32452,2024-210C,2026-06-17T20:57:04.833504,15.27595771,.0000641,42.9982,326.9550,272.0757,88.0021,0,U,61961,999,9031,.50346512E-3,.13625E-3,0
STARLINK-32458,2024-210D,2026-06-17T03:05:44.381760,15.27603662,.00023707,42.9961,323.9031,277.3385,82.7197,0,U,61962,999,9028,.80738304E-3,.22039E-3,0
STARLINK-32487,2024-210E,2026-06-17T22:00:01.999584,15.27549554,.00014759,43.0024,333.8837,279.5788,213.3351,0,U,61963,999,589,.23518864E-2,.64968E-3,0
STARLINK-32513,2024-210F,2026-06-17T02:49:04.973088,15.27606087,.0002819,42.9930,323.8167,288.3119,71.7426,0,U,61964,999,9028,.53132159E-3,.144E-3,0
STARLINK-32514,2024-210G,2026-06-17T03:46:54.391872,15.27600672,.00023466,42.9959,331.0467,264.8772,95.1812,0,U,61965,999,9020,.71698319E-3,.19533E-3,0
