STARLINK-32361          
1 61933U 24207X   26168.04785212  .00019692  00000+0  72243-3 0  9996
2 61933  43.0003  80.9422 0000802 129.7491 230.3431 15.27615108 89911
STARLINK-32500          
1 61935U 24207Z   26168.68838486  .00014136  00000+0  52214-3 0  9994
2 61935  43.0048  80.6275 0001573 263.7905  96.2767 15.27585872 89971
HAIYANG 4-01            
1 61936U 24208A   26168.93957685  .00000356  00000+0  62797-4 0  9994
2 61936  98.0028 176.6864 0002083 118.9892 241.1525 14.73299941 85555
STARLINK-11407 [DTC]    
1 61939U 24209A   26168.60393183  .00104033  00000+0  85234-3 0  9996
2 61939  53.1566 238.4964 0002292  30.2308 329.8842 15.69722139 92432
STARLINK-11337 [DTC]    
1 61940U 24209B   26168.53535351  .00125261  00000+0  10232-2 0  9996
2 61940  53.1566 238.7830 0001356  51.9327 308.1813 15.69710136 92409
STARLINK-11353 [DTC]    
1 61941U 24209C   26168.59412023  .00112121  00000+0  91770-3 0  9991
2 61941  53.1562 238.4320 0002341  27.0855 333.0285 15.69712473 92374
STARLINK-11320 [DTC]    
1 61942U 24209D   26168.46197498  .00168321  00000+0  13669-2 0  9997
2 61942  53.1569 239.7598 0001393  50.6025 309.5116 15.69696892 92344
STARLINK-11425 [DTC]    
1 61943U 24209E   26168.52073873  .00130973  00000+0  10694-2 0  9992
2 61943  53.1567 239.4135 0001166  88.6336 271.4816 15.69699950 92354
STARLINK-11422 [DTC]    
1 61944U 24209F   26168.57950078  .00128566  00000+0  10496-2 0  9994
2 61944  53.1558 239.0695 0001189  92.7561 267.3593 15.69712781 92368
STARLINK-11421 [DTC]    
1 61945U 24209G   26168.44725899  .00141405  00000+0  11522-2 0  9990
2 61945  53.1561 239.6632 0001156  60.4418 299.6715 15.69710255 92343
STARLINK-11410 [DTC]    
1 61946U 24209H   26168.69703087  .00140060  00000+0  11388-2 0  9999
2 61946  53.1565 238.3771 0001929  12.3531 347.7534 15.69766135 92429
STARLINK-11390 [DTC]    
1 61947U 24209J   26168.50111654  .00128311  00000+0  10478-2 0  9997
2 61947  53.1564 239.2851 0001017  93.7922 266.3213 15.69706695 92394
STARLINK-11414 [DTC]    
1 61948U 24209K   26168.41782509  .00143191  00000+0  11668-2 0  9996
2 61948  53.1560 239.4664 0001482  27.2364 332.8732 15.69703932 92388
STARLINK-11424 [DTC]    
1 61949U 24209L   26168.48639153  .00182702  00000+0  14756-2 0  9992
2 61949  53.1560 239.1852 0001770  37.0686 323.0454 15.69780489 92353
STARLINK-11423 [DTC]    
1 61950U 24209M   26168.43254139  .00120364  00000+0  98420-3 0  9993
2 61950  53.1560 239.5679 0000899  17.8692 342.2357 15.69704998 92389
STARLINK-11395 [DTC]    
1 61951U 24209N   26168.42763607  .00125288  00000+0  10237-2 0  9997
2 61951  53.1564 239.5300 0001699  31.2143 328.8975 15.69703784 92349
STARLINK-32572          
1 61952U 24209P   26168.84271173  .00015769  00000+0  54327-3 0  9997
2 61952  53.1596  37.0010 0002109 138.2203 221.8960 15.30207953 90233
STARLINK-32585          
1 61953U 24209Q   26168.88281946  .00046261  00000+0  83439-3 0  9998
2 61953  53.1593  32.2708 0001146  79.1485 280.9653 15.49326793 90304
STARLINK-32574          
1 61954U 24209R   26168.88044831  .00044363  00000+0  80088-3 0  9997
2 61954  53.1595  32.2542 0001318  44.5339 315.5776 15.49319025 90321
STARLINK-32583          
1 61955U 24209S   26168.71278344  .00051601  00000+0  92830-3 0  9999
2 61955  53.1589  32.6279 0001190  70.6463 289.4675 15.49352824 90299
STARLINK-32273          
1 61956U 24209T   26168.84798820  .00027205  00000+0  92689-3 0  9995
2 61956  53.1590  37.0296 0001107 120.6605 239.4505 15.30214044 90234
STARLINK-32359          
1 61957U 24209U   26168.89487257  .00108290  00000+0  19290-2 0  9990
2 61957  53.1591  31.6304 0001042  78.2723 281.8403 15.49298130 90330
STARLINK-32566          
1 61958U 24209V   26168.93381879  .00041267  00000+0  74603-3 0  9999
2 61958  53.1582  31.1668 0001094  84.6990 275.4144 15.49312246 90340
STARLINK-32499          
1 61959U 24210A   26168.20143186  .00017048  00000+0  62706-3 0  9990
2 61959  43.0048 337.4372 0002897 275.1492  84.9029 15.27606708 90144
STARLINK-32372          
1 61960U 24210B   26167.75143967  .00014625  00000+0  53975-3 0  9994
2 61960  43.0018 340.0779 0001874 264.4131  95.6507 15.27591785 89932
STARLINK-32452          
1 61961U 24210C   26168.87297261  .00013625  00000+0  50347-3 0  9995
2 61961  42.9982 326.9550 0000641 272.0757  88.0021 15.27595771 90311
STARLINK-32458          
1 61962U 24210D   26168.12898590  .00022039  00000+0  80738-3 0  9992
2 61962  42.9961 323.9031 0002370 277.3385  82.7197 15.27603662 90286
STARLINK-32487          
1 61963U 24210E   26168.91668981  .00064968  00000+0  23519-2 0  9999
2 61963  43.0024 333.8837 0001475 279.5788 213.3351 15.27549554  5895
STARLINK-32513          
1 61964U 24210F   26168.11741867  .00014400  00000+0  53132-3 0  9998
2 61964  42.9930 323.8167 0002819 288.3119  71.7426 15.27606087 90285
STARLINK-32514          
1 61965U 24210G   26168.15757398  .00019533  00000+0  71698-3 0  9998
2 61965  42.9959 331.0467 0002346 264.8772  95.1812 15.27600672 90205
